1 45370U 20019L   22365.15269351  .00003900  00000-0  28055-3 0  9996
2 45370  53.0545 354.4423 0002271  40.3431 319.7726 15.06402183154189
1 45370U 20019L   22365.28538489  .00004443  00000-0  31691-3 0  9994
2 45370  53.0545 353.8466 0002285  40.7345 319.3815 15.06406111154238
1 45370U 20019L   23001.14790563  .00002332  00000-0  17546-3 0  9998
2 45370  53.0546 349.9745 0002280  41.3926 318.7235 15.06394040154339
1 45370U 20019L   23001.28060198  .00001503  00000-0  11982-3 0  9994
2 45370  53.0547 349.3786 0002252  39.8073 320.3081 15.06391143154387
1 45370U 20019L   23001.94407890 -.00002526  00000-0 -15076-3 0  9997
2 45370  53.0545 346.4002 0002179  43.4079 316.7081 15.06391402154454
1 45370U 20019L   23002.20946040 -.00001605  00000-0 -88892-4 0  9996
2 45370  53.0550 345.2091 0001946  46.6227 313.4924 15.06397571154493
1 45370U 20019L   23002.54118153 -.00000636  00000-0 -23801-4 0  9991
2 45370  53.0550 343.7196 0002239  41.6533 318.4626 15.06412518154542
1 45370U 20019L   23002.93926803  .00000874  00000-0  77584-4 0  9992
2 45370  53.0551 341.9330 0002132  41.5697 318.5453 15.06397347154636
1 45370U 20019L   23002.93926803  .00000874  00000-0  77584-4 0  9992
2 45370  53.0551 341.9330 0002132  41.5697 318.5453 15.06397347154603
1 45370U 20019L   23003.40369399  .00001409  00000-0  11344-3 0  9992
2 45370  53.0549 339.8478 0001522  55.3323 304.7809 15.06398971154707
1 45370U 20019L   23004.19986646  .00000350  00000-0  42396-4 0  9995
2 45370  53.0545 336.2729 0002125  40.3052 319.8094 15.06393099154794
1 45370U 20019L   23004.39890339  .00000878  00000-0  77863-4 0  9992
2 45370  53.0544 335.3797 0002152  40.5374 319.5775 15.06397676154852
1 45370U 20019L   23004.92966628  .00001910  00000-0  14708-3 0  9992
2 45370  53.0550 332.9966 0002152  41.3883 318.7269 15.06410014154934
1 45370U 20019L   23004.92966628  .00001910  00000-0  14708-3 0  9992
2 45370  53.0550 332.9966 0002152  41.3883 318.7269 15.06410014154901
1 45370U 20019L   23005.19505438  .00002003  00000-0  15330-3 0  9996
2 45370  53.0547 331.8063 0002069  38.6447 321.4690 15.06408267154978
1 45370U 20019L   23005.59312615  .00002156  00000-0  16351-3 0  9996
2 45370  53.0549 330.0192 0002115  39.5183 320.5960 15.06418200155039
1 45370U 20019L   23006.25660998  .00000249  00000-0  35614-4 0  9995
2 45370  53.0552 327.0409 0002077  41.6571 318.4576 15.06395826155107
1 45370U 20019L   23006.92008827 -.00001820  00000-0 -10336-3 0  9997
2 45370  53.0550 324.0629 0002013  33.9709 326.1408 15.06388065155234
1 45370U 20019L   23006.92008827 -.00001820  00000-0 -10336-3 0  9997
2 45370  53.0550 324.0629 0002013  33.9709 326.1408 15.06388065155201
1 45370U 20019L   23007.25182401 -.00001595  00000-0 -88191-4 0  9999
2 45370  53.0548 322.5734 0002031  36.3758 323.7369 15.06388541155285
1 45370U 20019L   23007.84893993  .00000155  00000-0  29342-4 0  9991
2 45370  53.0528 319.8902 0002343  43.5123 316.6050 15.06390174155374
1 45370U 20019L   23007.84893993  .00000155  00000-0  29342-4 0  9991
2 45370  53.0528 319.8902 0002343  43.5123 316.6050 15.06390174155341
1 45370U 20019L   23008.57875269  .00001473  00000-0  11779-3 0  9996
2 45370  53.0548 316.6154 0002085  44.7348 315.3808 15.06393183155487
1 45370U 20019L   23008.84413989  .00000920  00000-0  80650-4 0  9994
2 45370  53.0550 315.4248 0002131  45.9786 314.1378 15.06398496155528
1 45370U 20019L   23008.84413989  .00000920  00000-0  80650-4 0  9994
2 45370  53.0550 315.4248 0002131  45.9786 314.1378 15.06398496155494
1 45370U 20019L   23009.57394910  .00001439  00000-0  11547-3 0  9991
2 45370  53.0551 312.1468 0002184  48.7376 311.3801 15.06405791155630
1 45370U 20019L   23010.23742129  .00000393  00000-0  45301-4 0  9999
2 45370  53.0554 309.1707 0001960  41.2726 318.8411 15.06399112155732
1 45370U 20019L   23010.23742129  .00000393  00000-0  45301-4 0  9999
2 45370  53.0554 309.1707 0001960  41.2726 318.8411 15.06399112155709
1 45370U 20019L   23011.09993704  .00000161  00000-0  29721-4 0  9992
2 45370  53.0546 305.2971 0002015  47.8090 312.3070 15.06393440155863
1 45370U 20019L   23011.09993704  .00000161  00000-0  29721-4 0  9992
2 45370  53.0546 305.2971 0002015  47.8090 312.3070 15.06393440155830
1 45370U 20019L   23011.82972848 -.00007762  00000-0 -50209-3 0  9999
2 45370  53.0549 302.0199 0001886  32.1223 327.9881 15.06446854155975
1 45370U 20019L   23011.82972848 -.00007762  00000-0 -50209-3 0  9999
2 45370  53.0549 302.0199 0001886  32.1223 327.9881 15.06446854155942
1 45370U 20019L   23012.02878235  .00000121  00000-0  27032-4 0  9996
2 45370  53.0540 301.1291 0001730  44.6508 315.4620 15.06403016155977
1 45370U 20019L   23012.82495237  .00000109  00000-0  26215-4 0  9999
2 45370  53.0543 297.5544 0002031  46.3392 313.7765 15.06394008156099
1 45370U 20019L   23012.95764540 -.00000015  00000-0  17919-4 0  9997
2 45370  53.0541 296.9585 0001877  47.9312 312.1837 15.06395315156142
1 45370U 20019L   23013.48843384 -.00002319  00000-0 -13686-3 0  9996
2 45370  53.0547 294.5749 0001888  46.6816 313.4330 15.06384143156229
1 45370U 20019L   23013.48843384 -.00002319  00000-0 -13686-3 0  9996
2 45370  53.0547 294.5749 0001888  46.6816 313.4330 15.06384143156195
1 45370U 20019L   23013.88651916 -.00005797  00000-0 -37064-3 0  9997
2 45370  53.0542 292.7890 0001354  50.2012 309.9096 15.06394477156284
1 45370U 20019L   23014.08555183 -.00001659  00000-0 -92488-4 0  9994
2 45370  53.0541 291.8920 0001845  58.9105 301.2065 15.06395495156282
1 45370U 20019L   23015.47883248  .00003254  00000-0  23727-3 0  9994
2 45370  53.0531 285.6396 0001346  73.0345 287.0792 15.06395756156524
1 45370U 20019L   23015.47883248  .00003254  00000-0  23727-3 0  9994
2 45370  53.0531 285.6396 0001346  73.0345 287.0792 15.06395756156490
1 45370U 20019L   23015.74422896  .00002753  00000-0  20371-3 0  9997
2 45370  53.0523 284.4465 0002093  77.5664 282.5559 15.06389298156538
1 45370U 20019L   23015.87691585  .00003943  00000-0  28349-3 0  9999
2 45370  53.0550 283.8518 0001354  80.8124 279.3018 15.06395845156581
1 45370U 20019L   23016.00960858  .00004059  00000-0  29124-3 0  9998
2 45370  53.0539 283.2553 0001619  72.2739 287.8426 15.06399156156601
1 45370U 20019L   23016.00960858  .00004059  00000-0  29124-3 0  9998
2 45370  53.0539 283.2553 0001619  72.2739 287.8426 15.06399156156577
1 45370U 20019L   23016.87213528 -.00000189  00000-0  62234-5 0  9990
2 45370  53.0537 279.3846 0001112  97.9786 262.1329 15.06387331156738
1 45370U 20019L   23016.87213528 -.00000189  00000-0  62234-5 0  9990
2 45370  53.0537 279.3846 0001112  97.9786 262.1329 15.06387331156705
1 45370U 20019L   23017.13753039 -.00001729  00000-0 -97258-4 0  9991
2 45370  53.0537 278.1913 0001522  92.2011 267.9152 15.06384102156778
1 45370U 20019L   23017.13753039 -.00001729  00000-0 -97258-4 0  9991
2 45370  53.0537 278.1913 0001522  92.2011 267.9152 15.06384102156745
1 45370U 20019L   23018.00002669  .00000524  00000-0  54071-4 0  9990
2 45370  53.0531 274.3202 0001451  95.5658 264.5497 15.06403796156872
1 45370U 20019L   23018.53080941  .00005738  00000-0  40385-3 0  9991
2 45370  53.0516 271.9387 0001510 104.2700 255.8457 15.06393334156981
1 45370U 20019L   23018.53080941  .00005738  00000-0  40385-3 0  9991
2 45370  53.0516 271.9387 0001510 104.2700 255.8457 15.06393334156958
1 45370U 20019L   23018.86254279  .00005864  00000-0  41223-3 0  9996
2 45370  53.0513 270.4496 0001491 106.9991 253.1161 15.06398435157039
1 45370U 20019L   23019.12792017  .00012528  00000-0  85784-3 0  9998
2 45370  53.0516 269.2572 0001400 105.3173 254.7971 15.06427086157040
1 45370U 20019L   23019.39332236  .00001760  00000-0  13707-3 0  9992
2 45370  53.0515 268.0660 0003566  83.4835 276.6560 15.06396014157111
1 45370U 20019L   23019.39332236  .00001760  00000-0  13707-3 0  9992
2 45370  53.0515 268.0660 0003566  83.4835 276.6560 15.06396014157087
1 45370U 20019L   23020.45487093  .00000717  00000-0  67050-4 0  9995
2 45370  53.0509 263.3010 0001308  90.9337 269.1802 15.06394616157272
1 45370U 20019L   23020.45487093  .00000717  00000-0  67050-4 0  9995
2 45370  53.0509 263.3010 0001308  90.9337 269.1802 15.06394616157249
1 45370U 20019L   23021.38372708  .00013455  00000-0  92017-3 0  9997
2 45370  53.0504 259.1304 0001274  86.1880 273.9255 15.06412435157385
1 45370U 20019L   23021.91449718  .00010077  00000-0  69411-3 0  9991
2 45370  53.0502 256.7477 0001301  84.8288 275.2849 15.06417487157460
1 45370U 20019L   23022.37892167  .00011040  00000-0  75859-3 0  9996
2 45370  53.0500 254.6624 0000540  92.2840 267.8211 15.06414650157537
1 45370U 20019L   23023.04239547  .00005351  00000-0  37785-3 0  9992
2 45370  53.0501 251.6833 0001287  78.8521 281.2612 15.06398038157639
1 45370U 20019L   23024.56837284  .00001393  00000-0  11239-3 0  9990
2 45370  53.0510 244.8306 0001258  77.5110 282.6020 15.06398643157861
1 45370U 20019L   23025.29818797  .00000771  00000-0  70666-4 0  9998
2 45370  53.0511 241.5539 0001264  77.3922 282.7209 15.06398446158008
1 45370U 20019L   23025.82896500  .00000546  00000-0  55549-4 0  9998
2 45370  53.0513 239.1707 0001275  86.9938 273.1196 15.06395603158084
1 45370U 20019L   23025.82896500  .00000546  00000-0  55549-4 0  9998
2 45370  53.0513 239.1707 0001275  86.9938 273.1196 15.06395603158051
1 45370U 20019L   23026.55877986  .00001021  00000-0  87449-4 0  9999
2 45370  53.0508 235.8952 0001217  89.9407 270.1722 15.06397928158199
1 45370U 20019L   23026.89051440  .00001324  00000-0  10775-3 0  9998
2 45370  53.0518 234.4061 0001191  91.3927 268.7198 15.06399626158211
1 45370U 20019L   23027.55398553  .00001241  00000-0  10219-3 0  9992
2 45370  53.0519 231.4284 0001218  90.6671 269.4457 15.06396262158347
1 45370U 20019L   23027.81937221  .00001037  00000-0  88494-4 0  9996
2 45370  53.0518 230.2372 0001216  87.4348 272.6780 15.06398037158385
1 45370U 20019L   23027.81937221  .00001037  00000-0  88494-4 0  9996
2 45370  53.0518 230.2372 0001216  87.4348 272.6780 15.06398037158352
1 45370U 20019L   23028.88091712  .00001195  00000-0  99103-4 0  9994
2 45370  53.0517 225.4710 0001214  87.4984 272.6144 15.06402017158546
1 45370U 20019L   23028.88091712  .00001195  00000-0  99103-4 0  9994
2 45370  53.0517 225.4710 0001214  87.4984 272.6144 15.06402017158513
1 45370U 20019L   23029.54439195  .00000156  00000-0  29339-4 0  9999
2 45370  53.0519 222.4918 0001272  95.1862 264.9272 15.06394206158614
1 45370U 20019L   23029.87612626  .00000135  00000-0  27952-4 0  9993
2 45370  53.0517 221.0029 0001251  84.4207 275.6925 15.06394807158690
1 45370U 20019L   23030.87132681  .00000253  00000-0  35848-4 0  9997
2 45370  53.0521 216.5342 0001263  83.1020 277.0113 15.06398318158847
1 45370U 20019L   23030.87132681  .00000253  00000-0  35848-4 0  9997
2 45370  53.0521 216.5342 0001263  83.1020 277.0113 15.06398318158814
1 45370U 20019L   23031.20306191  .00000257  00000-0  36126-4 0  9998
2 45370  53.0520 215.0449 0001258  82.8702 277.2429 15.06397316158899
1 45370U 20019L   23031.86652982  .00000899  00000-0  79245-4 0  9993
2 45370  53.0522 212.0659 0001229  80.6928 279.4200 15.06397647158994
